[{"OBJECT_NAME":"SIRION PATHFINDER-2","OBJECT_ID":"2018-099B","EPOCH":"2026-03-09T17:13:30.927648","MEAN_MOTION":15.13540628,"ECCENTRICITY":0.00072474,"INCLINATION":97.4389,"RA_OF_ASC_NODE":120.1436,"ARG_OF_PERICENTER":286.459,"MEAN_ANOMALY":73.5844,"EPHEMERIS_TYPE":0,"CLASSIFICATION_TYPE":"U","NORAD_CAT_ID":43759,"ELEMENT_SET_NO":999,"REV_AT_EPOCH":39757,"BSTAR":0.0003403547,"MEAN_MOTION_DOT":6.04e-5,"MEAN_MOTION_DDOT":0},{"OBJECT_NAME":"STARLINK-5376","OBJECT_ID":"2023-046BC","EPOCH":"2026-03-09T22:00:01.999584","MEAN_MOTION":15.13074474,"ECCENTRICITY":0.00020856,"INCLINATION":43.0003,"RA_OF_ASC_NODE":144.1718,"ARG_OF_PERICENTER":273.2498,"MEAN_ANOMALY":52.6444,"EPHEMERIS_TYPE":0,"CLASSIFICATION_TYPE":"U","NORAD_CAT_ID":56142,"ELEMENT_SET_NO":999,"REV_AT_EPOCH":567,"BSTAR":0.00041642388,"MEAN_MOTION_DOT":7.28e-5,"MEAN_MOTION_DDOT":0}]
